NORAD_CAT_ID,OBJECT_NAME,OBJECT_TYPE,EPOCH,MEAN_MOTION,ECCENTRICITY,INCLINATION,RA_OF_ASC_NODE,ARG_OF_PERICENTER,MEAN_ANOMALY,BSTAR,MEAN_MOTION_DOT,MEAN_MOTION_DDOT,TLE_LINE0,TLE_LINE1,TLE_LINE2,SEMIMAJOR_AXIS,PERIOD,APOGEE,PERIGEE,DECAYED
54191.0,STARLINK-4619,PAYLOAD,2024-02-05 15:56:53,15.08842098,0.0001442,53.2168,179.7132,82.5437,277.5718,4.7982e-05,4.76e-06,0.0,0 STARLINK-4619,1 54191U 22141AL  24036.66450810  .00000476  00000-0  47982-4 0  9996,2 54191  53.2168 179.7132 0001442  82.5437 277.5718 15.08842098 71030,6917.874,95.437,540.737,538.741,0.0
54191.0,STARLINK-4619,PAYLOAD,2024-02-06 14:12:17,15.08843826,0.0001462,53.2168,175.5507,80.9485,279.1673,6.0466e-05,6.75e-06,0.0,0 STARLINK-4619,1 54191U 22141AL  24037.59186573  .00000675  00000-0  60466-4 0  9994,2 54191  53.2168 175.5507 0001462  80.9485 279.1673 15.08843826 70944,6917.869,95.437,540.745,538.722,0.0
54191.0,STARLINK-4619,PAYLOAD,2024-02-07 12:27:41,15.08838977,0.0001532,53.2177,171.3912,104.5367,255.5795,3.5721e-05,2.81e-06,0.0,0 STARLINK-4619,1 54191U 22141AL  24038.51922944  .00000281  00000-0  35721-4 0  9996,2 54191  53.2177 171.3912 0001532 104.5367 255.5795 15.08838977 71314,6917.884,95.438,540.808,538.689,0.0
54191.0,STARLINK-4619,PAYLOAD,2024-02-07 14:03:04,15.08838944,0.000154,53.2178,171.0938,106.6568,253.4594,3.3595e-05,2.47e-06,0.0,0 STARLINK-4619,1 54191U 22141AL  24038.58546949  .00000247  00000-0  33595-4 0  9999,2 54191  53.2178 171.0938 0001540 106.6568 253.4594 15.08838944 71098,6917.884,95.438,540.814,538.683,0.0
54191.0,STARLINK-4619,PAYLOAD,2024-02-07 15:38:27,15.08840344,0.0001399,53.2174,170.7964,94.7123,265.4029,3.9216e-05,3.36e-06,0.0,0 STARLINK-4619,1 54191U 22141AL  24038.65170888  .00000336  00000-0  39216-4 0  9997,2 54191  53.2174 170.7964 0001399  94.7123 265.4029 15.08840344 71100,6917.879,95.438,540.712,538.777,0.0
54191.0,STARLINK-4619,PAYLOAD,2024-02-08 09:07:43,15.08828669,0.0001352,53.2176,167.5256,91.89,268.2247,-3.7163e-05,-8.79e-06,0.0,0 STARLINK-4619,1 54191U 22141AL  24039.38035990 -.00000879  00000-0 -37163-4 0  9995,2 54191  53.2176 167.5256 0001352  91.8900 268.2247 15.08828669 71446,6917.915,95.438,540.715,538.845,0.0
54191.0,STARLINK-4619,PAYLOAD,2024-02-08 13:53:52,15.08833488,0.0001352,53.2175,166.6314,90.0358,270.0789,-1.8474e-05,-5.82e-06,0.0,0 STARLINK-4619,1 54191U 22141AL  24039.57907926 -.00000582  00000-0 -18474-4 0  9998,2 54191  53.2175 166.6314 0001352  90.0358 270.0789 15.08833488 71243,6917.9,95.438,540.701,538.83,0.0
54191.0,STARLINK-4619,PAYLOAD,2024-02-08 15:29:15,15.08834651,0.000141,53.2178,166.336,90.5509,269.5645,1.0996e-05,-1.13e-06,0.0,0 STARLINK-4619,1 54191U 22141AL  24039.64531841 -.00000113  00000-0  10996-4 0  9995,2 54191  53.2178 166.3360 0001410  90.5509 269.5645 15.08834651 71250,6917.897,95.438,540.737,538.786,0.0
54191.0,STARLINK-4619,PAYLOAD,2024-02-09 12:09:15,15.08846235,0.0001261,53.2176,162.4698,85.5369,274.5767,2.8221e-05,1.61e-06,0.0,0 STARLINK-4619,1 54191U 22141AL  24040.50643338  .00000161  00000-0  28221-4 0  9999,2 54191  53.2176 162.4698 0001261  85.5369 274.5767 15.08846235 71613,6917.861,95.437,540.599,538.854,0.0
54191.0,STARLINK-4619,PAYLOAD,2024-02-09 13:44:38,15.08842304,0.0001302,53.2173,162.1723,91.146,268.9681,0.00012994,1.781e-05,0.0,0 STARLINK-4619,1 54191U 22141AL  24040.57267271  .00001781  00000-0  12994-3 0  9992,2 54191  53.2173 162.1723 0001302  91.1460 268.9681 15.08842304 71397,6917.873,95.437,540.639,538.838,0.0
54191.0,STARLINK-4619,PAYLOAD,2024-02-09 16:55:24,15.08853497,0.0001355,53.217,161.5786,110.5337,249.5801,0.00022852,3.352e-05,0.0,0 STARLINK-4619,1 54191U 22141AL  24040.70514251  .00003352  00000-0  22852-3 0  9990,2 54191  53.2170 161.5786 0001355 110.5337 249.5801 15.08853497 71645,6917.839,95.437,540.642,538.767,0.0
54191.0,STARLINK-4619,PAYLOAD,2024-02-10 12:00:02,15.08841589,0.0001729,53.2169,158.0042,130.4101,229.7042,0.00011149,1.487e-05,0.0,0 STARLINK-4619,1 54191U 22141AL  24041.50003311  .00001487  00000-0  11149-3 0  9993,2 54191  53.2169 158.0042 0001729 130.4101 229.7042 15.08841589 71763,6917.876,95.437,540.937,538.544,0.0
54191.0,STARLINK-4619,PAYLOAD,2024-02-10 13:35:25,15.08842879,0.0001847,53.2171,157.7068,129.0502,231.0655,0.0001271,1.735e-05,0.0,0 STARLINK-4619,1 54191U 22141AL  24041.56627243  .00001735  00000-0  12710-3 0  9996,2 54191  53.2171 157.7068 0001847 129.0502 231.0655 15.08842879 71545,6917.872,95.437,541.014,538.459,0.0
54191.0,STARLINK-4619,PAYLOAD,2024-02-10 16:46:12,15.08845553,0.0001549,53.2172,157.1137,77.7677,282.3489,0.00016746,2.379e-05,0.0,0 STARLINK-4619,1 54191U 22141AL  24041.69875398  .00002379  00000-0  16746-3 0  9994,2 54191  53.2172 157.1137 0001549  77.7677 282.3489 15.08845553 71566,6917.863,95.437,540.8,538.657,0.0
54191.0,STARLINK-4619,PAYLOAD,2024-02-11 13:26:13,15.08848216,0.0001735,53.2168,153.2512,66.2055,293.9119,-1.6327e-05,-5.48e-06,0.0,0 STARLINK-4619,1 54191U 22141AL  24042.55987690 -.00000548  00000-0 -16327-4 0  9993,2 54191  53.2168 153.2512 0001735  66.2055 293.9119 15.08848216 71696,6917.855,95.437,540.921,538.52,0.0
54191.0,STARLINK-4619,PAYLOAD,2024-02-11 15:01:35,15.08853771,0.0001691,53.217,152.9523,69.8153,290.3021,3.37e-05,2.48e-06,0.0,0 STARLINK-4619,1 54191U 22141AL  24042.62611076  .00000248  00000-0  33700-4 0  9992,2 54191  53.2170 152.9523 0001691  69.8153 290.3021 15.08853771 71938,6917.838,95.437,540.873,538.533,0.0
54191.0,STARLINK-4619,PAYLOAD,2024-02-12 11:41:36,15.08849391,0.0001891,53.2171,149.0881,67.4203,292.6989,5.3403e-05,5.62e-06,0.0,0 STARLINK-4619,1 54191U 22141AL  24043.48723121  .00000562  00000-0  53403-4 0  9993,2 54191  53.2171 149.0881 0001891  67.4203 292.6989 15.08849391 72061,6917.852,95.437,541.025,538.409,0.0
54191.0,STARLINK-4619,PAYLOAD,2024-02-12 13:16:59,15.08852132,0.0001833,53.2171,148.79,69.7364,290.3825,7.6755e-05,9.34e-06,0.0,0 STARLINK-4619,1 54191U 22141AL  24043.55346836  .00000934  00000-0  76755-4 0  9993,2 54191  53.2171 148.7900 0001833  69.7364 290.3825 15.08852132 71844,6917.843,95.437,540.976,538.44,0.0
54191.0,STARLINK-4619,PAYLOAD,2024-02-13 11:32:24,15.08838425,0.0001527,53.2174,144.6218,102.1836,257.9327,-8.6441e-05,-1.663e-05,0.0,0 STARLINK-4619,1 54191U 22141AL  24044.48084192 -.00001663  00000-0 -86441-4 0  9995,2 54191  53.2174 144.6218 0001527 102.1836 257.9327 15.08838425 72217,6917.885,95.438,540.807,538.694,0.0
54191.0,STARLINK-4619,PAYLOAD,2024-02-13 13:07:48,15.08835834,0.0001348,53.2168,144.3262,87.2944,272.8202,-3.5362e-05,-8.51e-06,0.0,0 STARLINK-4619,1 54191U 22141AL  24044.54708361 -.00000851  00000-0 -35362-4 0  9997,2 54191  53.2168 144.3262 0001348  87.2944 272.8202 15.08835834 71993,6917.893,95.438,540.691,538.826,0.0
54191.0,STARLINK-4619,PAYLOAD,2024-02-14 11:23:10,15.08855367,0.0001547,53.2159,140.1646,93.0642,267.0527,0.0002566,3.8e-05,0.0,0 STARLINK-4619,1 54191U 22141AL  24045.47443025  .00003800  00000-0  25660-3 0  9997,2 54191  53.2159 140.1646 0001547  93.0642 267.0527 15.08855367 72365,6917.833,95.437,540.769,538.628,0.0
54191.0,STARLINK-4619,PAYLOAD,2024-02-14 12:58:33,15.08860402,0.0001335,53.2158,139.8644,90.0175,270.097,0.0003083,4.625e-05,0.0,0 STARLINK-4619,1 54191U 22141AL  24045.54066701  .00004625  00000-0  30830-3 0  9998,2 54191  53.2158 139.8644 0001335  90.0175 270.0970 15.08860402 72148,6917.818,95.436,540.607,538.76,0.0
54191.0,STARLINK-4619,PAYLOAD,2024-02-14 16:09:19,15.08863775,0.0001221,53.2156,139.2682,90.0336,270.0796,0.0003412,5.15e-05,0.0,0 STARLINK-4619,1 54191U 22141AL  24045.67314387  .00005150  00000-0  34120-3 0  9998,2 54191  53.2156 139.2682 0001221  90.0336 270.0796 15.08863775 72169,6917.808,95.436,540.517,538.828,0.0
54191.0,STARLINK-4619,PAYLOAD,2024-02-15 11:13:58,15.08832917,0.000125,53.2153,135.7022,102.9594,257.1538,4.3736e-05,4.08e-06,0.0,0 STARLINK-4619,1 54191U 22141AL  24046.46804312  .00000408  00000-0  43736-4 0  9993,2 54191  53.2153 135.7022 0001250 102.9594 257.1538 15.08832917 72519,6917.902,95.438,540.632,538.902,0.0
54191.0,STARLINK-4619,PAYLOAD,2024-02-15 12:49:21,15.08835909,0.0001339,53.2156,135.4048,106.2604,253.8535,8.5276e-05,1.069e-05,0.0,0 STARLINK-4619,1 54191U 22141AL  24046.53428200  .00001069  00000-0  85276-4 0  9998,2 54191  53.2156 135.4048 0001339 106.2604 253.8535 15.08835909 72293,6917.893,95.438,540.684,538.832,0.0
54191.0,STARLINK-4619,PAYLOAD,2024-02-15 22:21:40,15.08842973,0.000122,53.216,133.6234,95.2564,264.8567,8.2899e-05,1.032e-05,0.0,0 STARLINK-4619,1 54191U 22141AL  24046.93171797  .00001032  00000-0  82899-4 0  9996,2 54191  53.2160 133.6234 0001220  95.2564 264.8567 15.08842973 72359,6917.871,95.437,540.58,538.892,0.0
54191.0,STARLINK-4619,PAYLOAD,2024-02-16 04:43:12,15.08844122,0.0001141,53.2164,132.4354,103.6751,256.4368,5.3226e-06,-2.03e-06,0.0,0 STARLINK-4619,1 54191U 22141AL  24047.19667797 -.00000203  00000-0  53226-5 0  9998,2 54191  53.2164 132.4354 0001141 103.6751 256.4368 15.08844122 72621,6917.868,95.437,540.522,538.943,0.0
54191.0,STARLINK-4619,PAYLOAD,2024-02-16 12:40:08,15.08848848,0.0001342,53.2168,130.9476,94.086,266.0286,7.59e-05,9.21e-06,0.0,0 STARLINK-4619,1 54191U 22141AL  24047.52787497  .00000921  00000-0  75900-4 0  9993,2 54191  53.2168 130.9476 0001342  94.0860 266.0286 15.08848848 72445,6917.853,95.437,540.647,538.79,0.0
54191.0,STARLINK-4619,PAYLOAD,2024-02-16 15:50:54,15.08852739,0.0001266,53.2152,130.3492,91.2772,268.8365,0.00010737,1.422e-05,0.0,0 STARLINK-4619,1 54191U 22141AL  24047.66035119  .00001422  00000-0  10737-3 0  9998,2 54191  53.2152 130.3492 0001266  91.2772 268.8365 15.08852739 72695,6917.841,95.437,540.582,538.831,0.0
54191.0,STARLINK-4619,PAYLOAD,2024-02-17 10:55:33,15.08834233,0.0001608,53.217,126.7855,98.9526,261.1649,5.3032e-05,5.56e-06,0.0,0 STARLINK-4619,1 54191U 22141AL  24048.45524578  .00000556  00000-0  53032-4 0  9991,2 54191  53.2170 126.7855 0001608  98.9526 261.1649 15.08834233 72812,6917.898,95.438,540.875,538.651,0.0
